API VERSION: 1.2
API SOURCE: NASA/JPL Horizons API



*******************************************************************************
Ephemeris / API_USER Wed Apr  1 04:39:47 2026 Pasadena, USA      / Horizons
*******************************************************************************
Target body name: Moon (301)                      {source: DE441}
Center body name: Earth (399)                     {source: DE441}
Center-site name: BODY CENTER
*******************************************************************************
Start time      : A.D. 2026-Apr-02 02:00:00.0000 TDB
Stop  time      : A.D. 2026-Apr-03 06:00:00.0000 TDB
Step-size       : 1 minutes
*******************************************************************************
Center geodetic : 0.0, 0.0, 0.0                   {E-lon(deg),Lat(deg),Alt(km)}
Center cylindric: 0.0, 0.0, 0.0                   {E-lon(deg),Dxy(km),Dz(km)}
Center radii    : 6378.137, 6378.137, 6356.752 km {Equator_a, b, pole_c}
Output units    : KM-S
Calendar mode   : Mixed Julian/Gregorian
Output type     : GEOMETRIC cartesian states
Output format   : 3 (position, velocity, LT, range, range-rate)
EOP file        : eop.260331.p260627
EOP coverage    : DATA-BASED 1962-JAN-20 TO 2026-MAR-31. PREDICTS-> 2026-JUN-26
Reference frame : ICRF
*******************************************************************************
JDTDB
   X     Y     Z
   VX    VY    VZ
   LT    RG    RR
*******************************************************************************
$$SOE
2461133.127777778 = A.D. 2026-Apr-02 15:04:00.0000 TDB 
 X =-3.738616338866568E+05 Y =-1.068910188839066E+05 Z =-7.161663125107462E+04
 VX= 2.872576753939282E-01 VY=-8.476870360977944E-01 VZ=-4.446075461879207E-01
 LT= 1.318853349086260E+00 RG= 3.953822872641018E+05 RR= 3.808162956638283E-02
2461133.128472222 = A.D. 2026-Apr-02 15:05:00.0000 TDB 
 X =-3.738443940882267E+05 Y =-1.069418788588852E+05 Z =-7.164330686432670E+04
 VX= 2.874022707256762E-01 VY=-8.476454599751071E-01 VZ=-4.445795605459238E-01
 LT= 1.318860970515646E+00 RG= 3.953845721111509E+05 RR= 3.807993857303955E-02
2461133.129166667 = A.D. 2026-Apr-02 15:06:00.0000 TDB 
 X =-3.738271456143557E+05 Y =-1.069927363387178E+05 Z =-7.166998079813983E+04
 VX= 2.875468567591290E-01 VY=-8.476038645618819E-01 VZ=-4.445515648897142E-01
 LT= 1.318868591606499E+00 RG= 3.953868568567105E+05 RR= 3.807824657405724E-02
2461133.129861111 = A.D. 2026-Apr-02 15:07:00.0000 TDB 
 X =-3.738098884656017E+05 Y =-1.070435913222469E+05 Z =-7.169665305191322E+04
 VX= 2.876914334913273E-01 VY=-8.475622498597328E-01 VZ=-4.445235592202781E-01
 LT= 1.318876212358617E+00 RG= 3.953891415007198E+05 RR= 3.807655356928333E-02
2461133.130555556 = A.D. 2026-Apr-02 15:08:00.0000 TDB 
 X =-3.737926226425228E+05 Y =-1.070944438083152E+05 Z =-7.172332362504603E+04
 VX= 2.878360009193126E-01 VY=-8.475206158702735E-01 VZ=-4.444955435386022E-01
 LT= 1.318883832771799E+00 RG= 3.953914260431186E+05 RR= 3.807485955856416E-02
2461133.131250000 = A.D. 2026-Apr-02 15:09:00.0000 TDB 
 X =-3.737753481456775E+05 Y =-1.071452937957656E+05 Z =-7.174999251693762E+04
 VX= 2.879805590401265E-01 VY=-8.474789625951182E-01 VZ=-4.444675178456730E-01
 LT= 1.318891452845844E+00 RG= 3.953937104838467E+05 RR= 3.807316454174684E-02
2461133.131944444 = A.D. 2026-Apr-02 15:10:00.0000 TDB 
 X =-3.737580649756242E+05 Y =-1.071961412834409E+05 Z =-7.177665972698730E+04
 VX= 2.881251078508117E-01 VY=-8.474372900358813E-01 VZ=-4.444394821424772E-01
 LT= 1.318899072580550E+00 RG= 3.953959948228435E+05 RR= 3.807146851867805E-02
2461133.132638889 = A.D. 2026-Apr-02 15:11:00.0000 TDB 
 X =-3.737407731329217E+05 Y =-1.072469862701842E+05 Z =-7.180332525459453E+04
 VX= 2.882696473484105E-01 VY=-8.473955981941779E-01 VZ=-4.444114364300015E-01
 LT= 1.318906691975716E+00 RG= 3.953982790600488E+05 RR= 3.806977148920478E-02
2461133.133333333 = A.D. 2026-Apr-02 15:12:00.0000 TDB 
 X =-3.737234726181287E+05 Y =-1.072978287548386E+05 Z =-7.182998909915875E+04
 VX= 2.884141775299660E-01 VY=-8.473538870716228E-01 VZ=-4.443833807092335E-01
 LT= 1.318914311031140E+00 RG= 3.954005631954020E+05 RR= 3.806807345317419E-02
2461133.134027778 = A.D. 2026-Apr-02 15:13:00.0000 TDB 
 X =-3.737061634318045E+05 Y =-1.073486687362472E+05 Z =-7.185665126007948E+04
 VX= 2.885586983925220E-01 VY=-8.473121566698315E-01 VZ=-4.443553149811599E-01
 LT= 1.318921929746622E+00 RG= 3.954028472288430E+05 RR= 3.806637441043288E-02
2461133.134722222 = A.D. 2026-Apr-02 15:14:00.0000 TDB 
 X =-3.736888455745081E+05 Y =-1.073995062132534E+05 Z =-7.188331173675635E+04
 VX= 2.887032099331222E-01 VY=-8.472704069904197E-01 VZ=-4.443272392467685E-01
 LT= 1.318929548121958E+00 RG= 3.954051311603112E+05 RR= 3.806467436082830E-02
2461133.135416667 = A.D. 2026-Apr-02 15:15:00.0000 TDB 
 X =-3.736715190467989E+05 Y =-1.074503411847006E+05 Z =-7.190997052858899E+04
 VX= 2.888477121488109E-01 VY=-8.472286380350038E-01 VZ=-4.442991535070464E-01
 LT= 1.318937166156949E+00 RG= 3.954074149897461E+05 RR= 3.806297330420745E-02
2461133.136111111 = A.D. 2026-Apr-02 15:16:00.0000 TDB 
 X =-3.736541838492368E+05 Y =-1.075011736494321E+05 Z =-7.193662763497711E+04
 VX= 2.889922050366332E-01 VY=-8.471868498052000E-01 VZ=-4.442710577629815E-01
 LT= 1.318944783851392E+00 RG= 3.954096987170876E+05 RR= 3.806127124041727E-02
2461133.136805556 = A.D. 2026-Apr-02 15:17:00.0000 TDB 
 X =-3.736368399823812E+05 Y =-1.075520036062917E+05 Z =-7.196328305532048E+04
 VX= 2.891366885936343E-01 VY=-8.471450423026249E-01 VZ=-4.442429520155615E-01
 LT= 1.318952401205086E+00 RG= 3.954119823422749E+05 RR= 3.805956816930485E-02
2461133.137500000 = A.D. 2026-Apr-02 15:18:00.0000 TDB 
 X =-3.736194874467922E+05 Y =-1.076028310541230E+05 Z =-7.198993678901893E+04
 VX= 2.892811628168597E-01 VY=-8.471032155288957E-01 VZ=-4.442148362657747E-01
 LT= 1.318960018217829E+00 RG= 3.954142658652478E+05 RR= 3.805786409071753E-02
2461133.138194445 = A.D. 2026-Apr-02 15:19:00.0000 TDB 
 X =-3.736021262430299E+05 Y =-1.076536559917698E+05 Z =-7.201658883547236E+04
 VX= 2.894256277033557E-01 VY=-8.470613694856296E-01 VZ=-4.441867105146090E-01
 LT= 1.318967634889419E+00 RG= 3.954165492859455E+05 RR= 3.805615900450269E-02
2461133.138888889 = A.D. 2026-Apr-02 15:20:00.0000 TDB 
 X =-3.735847563716546E+05 Y =-1.077044784180759E+05 Z =-7.204323919408068E+04
 VX= 2.895700832501685E-01 VY=-8.470195041744443E-01 VZ=-4.441585747630527E-01
 LT= 1.318975251219656E+00 RG= 3.954188326043081E+05 RR= 3.805445291050737E-02
2461133.139583333 = A.D. 2026-Apr-02 15:21:00.0000 TDB 
 X =-3.735673778332268E+05 Y =-1.077552983318854E+05 Z =-7.206988786424394E+04
 VX= 2.897145294543454E-01 VY=-8.469776195969578E-01 VZ=-4.441304290120942E-01
 LT= 1.318982867208336E+00 RG= 3.954211158202747E+05 RR= 3.805274580857902E-02
2461133.140277778 = A.D. 2026-Apr-02 15:22:00.0000 TDB 
 X =-3.735499906283070E+05 Y =-1.078061157320423E+05 Z =-7.209653484536216E+04
 VX= 2.898589663129336E-01 VY=-8.469357157547885E-01 VZ=-4.441022732627223E-01
 LT= 1.318990482855259E+00 RG= 3.954233989337850E+05 RR= 3.805103769856485E-02
2461133.140972222 = A.D. 2026-Apr-02 15:23:00.0000 TDB 
 X =-3.735325947574562E+05 Y =-1.078569306173907E+05 Z =-7.212318013683551E+04
 VX= 2.900033938229810E-01 VY=-8.468937926495549E-01 VZ=-4.440741075159256E-01
 LT= 1.318998098160223E+00 RG= 3.954256819447784E+05 RR= 3.804932858031243E-02
2461133.141666667 = A.D. 2026-Apr-02 15:24:00.0000 TDB 
 X =-3.735151902212353E+05 Y =-1.079077429867750E+05 Z =-7.214982373806415E+04
 VX= 2.901478119815356E-01 VY=-8.468518502828759E-01 VZ=-4.440459317726930E-01
 LT= 1.319005713123025E+00 RG= 3.954279648531944E+05 RR= 3.804761845366912E-02
2461133.142361111 = A.D. 2026-Apr-02 15:25:00.0000 TDB 
 X =-3.734977770202055E+05 Y =-1.079585528390395E+05 Z =-7.217646564844833E+04
 VX= 2.902922207856465E-01 VY=-8.468098886563707E-01 VZ=-4.440177460340136E-01
 LT= 1.319013327743464E+00 RG= 3.954302476589726E+05 RR= 3.804590731848217E-02
2461133.143055555 = A.D. 2026-Apr-02 15:26:00.0000 TDB 
 X =-3.734803551549281E+05 Y =-1.080093601730286E+05 Z =-7.220310586738835E+04
 VX= 2.904366202323624E-01 VY=-8.467679077716589E-01 VZ=-4.439895503008767E-01
 LT= 1.319020942021338E+00 RG= 3.954325303620524E+05 RR= 3.804419517459941E-02
2461133.143750000 = A.D. 2026-Apr-02 15:27:00.0000 TDB 
 X =-3.734629246259648E+05 Y =-1.080601649875869E+05 Z =-7.222974439428457E+04
 VX= 2.905810103187330E-01 VY=-8.467259076303606E-01 VZ=-4.439613445742714E-01
 LT= 1.319028555956446E+00 RG= 3.954348129623734E+05 RR= 3.804248202186816E-02
2461133.144444444 = A.D. 2026-Apr-02 15:28:00.0000 TDB 
 X =-3.734454854338772E+05 Y =-1.081109672815591E+05 Z =-7.225638122853740E+04
 VX= 2.907253910418082E-01 VY=-8.466838882340955E-01 VZ=-4.439331288551875E-01
 LT= 1.319036169548585E+00 RG= 3.954370954598749E+05 RR= 3.804076786013610E-02
2461133.145138889 = A.D. 2026-Apr-02 15:29:00.0000 TDB 
 X =-3.734280375792271E+05 Y =-1.081617670537900E+05 Z =-7.228301636954735E+04
 VX= 2.908697623986387E-01 VY=-8.466418495844845E-01 VZ=-4.439049031446148E-01
 LT= 1.319043782797553E+00 RG= 3.954393778544965E+05 RR= 3.803905268925074E-02
2461133.145833333 = A.D. 2026-Apr-02 15:30:00.0000 TDB 
 X =-3.734105810625767E+05 Y =-1.082125643031242E+05 Z =-7.230964981671494E+04
 VX= 2.910141243862746E-01 VY=-8.465997916831481E-01 VZ=-4.438766674435425E-01
 LT= 1.319051395703148E+00 RG= 3.954416601461775E+05 RR= 3.803733650905988E-02
2461133.146527778 = A.D. 2026-Apr-02 15:31:00.0000 TDB 
 X =-3.733931158844882E+05 Y =-1.082633590284070E+05 Z =-7.233628156944078E+04
 VX= 2.911584770017678E-01 VY=-8.465577145317077E-01 VZ=-4.438484217529611E-01
 LT= 1.319059008265169E+00 RG= 3.954439423348573E+05 RR= 3.803561931941122E-02
